[{"OBJECT_NAME":"STARLINK-34624","OBJECT_ID":"2025-150R","EPOCH":"2026-03-20T10:27:00.449568","MEAN_MOTION":14.98336878,"ECCENTRICITY":0.00040347,"INCLINATION":70.0007,"RA_OF_ASC_NODE":107.4749,"ARG_OF_PERICENTER":273.2496,"MEAN_ANOMALY":86.8202,"EPHEMERIS_TYPE":0,"CLASSIFICATION_TYPE":"U","NORAD_CAT_ID":64805,"ELEMENT_SET_NO":999,"REV_AT_EPOCH":3812,"BSTAR":-0.00027663393,"MEAN_MOTION_DOT":-3.393e-5,"MEAN_MOTION_DDOT":0},{"OBJECT_NAME":"STARLINK-34664","OBJECT_ID":"2025-150S","EPOCH":"2026-03-20T18:51:42.007968","MEAN_MOTION":14.98357794,"ECCENTRICITY":0.000281,"INCLINATION":70.0014,"RA_OF_ASC_NODE":106.2879,"ARG_OF_PERICENTER":270.482,"MEAN_ANOMALY":89.6017,"EPHEMERIS_TYPE":0,"CLASSIFICATION_TYPE":"U","NORAD_CAT_ID":64806,"ELEMENT_SET_NO":999,"REV_AT_EPOCH":3818,"BSTAR":0.00094278,"MEAN_MOTION_DOT":0.00011182,"MEAN_MOTION_DDOT":0},{"OBJECT_NAME":"STARLINK-34663","OBJECT_ID":"2025-150T","EPOCH":"2026-03-20T11:45:08.361504","MEAN_MOTION":14.98327764,"ECCENTRICITY":0.00038463,"INCLINATION":70.0012,"RA_OF_ASC_NODE":107.2668,"ARG_OF_PERICENTER":269.0601,"MEAN_ANOMALY":91.0117,"EPHEMERIS_TYPE":0,"CLASSIFICATION_TYPE":"U","NORAD_CAT_ID":64807,"ELEMENT_SET_NO":999,"REV_AT_EPOCH":3813,"BSTAR":0.00024127466,"MEAN_MOTION_DOT":2.787e-5,"MEAN_MOTION_DDOT":0},{"OBJECT_NAME":"STARLINK-34696","OBJECT_ID":"2025-150U","EPOCH":"2026-03-20T11:51:08.164800","MEAN_MOTION":14.98341553,"ECCENTRICITY":0.00034339,"INCLINATION":70.0012,"RA_OF_ASC_NODE":107.2757,"ARG_OF_PERICENTER":271.3166,"MEAN_ANOMALY":88.76,"EPHEMERIS_TYPE":0,"CLASSIFICATION_TYPE":"U","NORAD_CAT_ID":64808,"ELEMENT_SET_NO":999,"REV_AT_EPOCH":3813,"BSTAR":0.00048318553,"MEAN_MOTION_DOT":5.679e-5,"MEAN_MOTION_DDOT":0},{"OBJECT_NAME":"STARLINK-34675","OBJECT_ID":"2025-150V","EPOCH":"2026-03-20T11:33:07.610976","MEAN_MOTION":14.9833125,"ECCENTRICITY":0.00032416,"INCLINATION":70.0007,"RA_OF_ASC_NODE":107.2358,"ARG_OF_PERICENTER":270.3227,"MEAN_ANOMALY":89.7561,"EPHEMERIS_TYPE":0,"CLASSIFICATION_TYPE":"U","NORAD_CAT_ID":64809,"ELEMENT_SET_NO":999,"REV_AT_EPOCH":3813,"BSTAR":0.00052267844,"MEAN_MOTION_DOT":6.149e-5,"MEAN_MOTION_DDOT":0},{"OBJECT_NAME":"STARLINK-34608","OBJECT_ID":"2025-150W","EPOCH":"2026-03-20T19:09:42.237792","MEAN_MOTION":14.98338709,"ECCENTRICITY":0.0003201,"INCLINATION":70.0013,"RA_OF_ASC_NODE":106.3352,"ARG_OF_PERICENTER":267.7948,"MEAN_ANOMALY":92.2844,"EPHEMERIS_TYPE":0,"CLASSIFICATION_TYPE":"U","NORAD_CAT_ID":64810,"ELEMENT_SET_NO":999,"REV_AT_EPOCH":3818,"BSTAR":1.5001e-5,"MEAN_MOTION_DOT":8.6e-7,"MEAN_MOTION_DDOT":0},{"OBJECT_NAME":"STARLINK-34669","OBJECT_ID":"2025-150X","EPOCH":"2026-03-20T19:03:42.850944","MEAN_MOTION":14.98339391,"ECCENTRICITY":0.0004332,"INCLINATION":70.0004,"RA_OF_ASC_NODE":106.3161,"ARG_OF_PERICENTER":268.2123,"MEAN_ANOMALY":91.854,"EPHEMERIS_TYPE":0,"CLASSIFICATION_TYPE":"U","NORAD_CAT_ID":64811,"ELEMENT_SET_NO":999,"REV_AT_EPOCH":3818,"BSTAR":0.00032329,"MEAN_MOTION_DOT":3.768e-5,"MEAN_MOTION_DDOT":0},{"OBJECT_NAME":"STARLINK-34644","OBJECT_ID":"2025-150Y","EPOCH":"2026-03-20T18:27:57.016224","MEAN_MOTION":14.98332601,"ECCENTRICITY":0.000352,"INCLINATION":70.0014,"RA_OF_ASC_NODE":106.5847,"ARG_OF_PERICENTER":271.9659,"MEAN_ANOMALY":88.1097,"EPHEMERIS_TYPE":0,"CLASSIFICATION_TYPE":"U","NORAD_CAT_ID":64812,"ELEMENT_SET_NO":999,"REV_AT_EPOCH":3817,"BSTAR":0.00047332,"MEAN_MOTION_DOT":5.56e-5,"MEAN_MOTION_DDOT":0},{"OBJECT_NAME":"STARLINK-34685","OBJECT_ID":"2025-150Z","EPOCH":"2026-03-20T18:51:58.163904","MEAN_MOTION":14.98342206,"ECCENTRICITY":0.0003427,"INCLINATION":70.0017,"RA_OF_ASC_NODE":106.687,"ARG_OF_PERICENTER":259.6989,"MEAN_ANOMALY":100.3784,"EPHEMERIS_TYPE":0,"CLASSIFICATION_TYPE":"U","NORAD_CAT_ID":64813,"ELEMENT_SET_NO":999,"REV_AT_EPOCH":3817,"BSTAR":0.00039516,"MEAN_MOTION_DOT":4.627e-5,"MEAN_MOTION_DDOT":0},{"OBJECT_NAME":"STARLINK-34668","OBJECT_ID":"2025-150AA","EPOCH":"2026-03-20T19:15:58.604832","MEAN_MOTION":14.98341242,"ECCENTRICITY":0.0003201,"INCLINATION":70.0008,"RA_OF_ASC_NODE":106.3411,"ARG_OF_PERICENTER":272.3279,"MEAN_ANOMALY":87.7514,"EPHEMERIS_TYPE":0,"CLASSIFICATION_TYPE":"U","NORAD_CAT_ID":64814,"ELEMENT_SET_NO":999,"REV_AT_EPOCH":3818,"BSTAR":0.00037268,"MEAN_MOTION_DOT":4.358e-5,"MEAN_MOTION_DDOT":0},{"OBJECT_NAME":"STARLINK-34667","OBJECT_ID":"2025-150AB","EPOCH":"2026-03-20T11:39:19.919808","MEAN_MOTION":14.98344528,"ECCENTRICITY":0.0003362,"INCLINATION":70.0003,"RA_OF_ASC_NODE":107.2423,"ARG_OF_PERICENTER":272.728,"MEAN_ANOMALY":87.3494,"EPHEMERIS_TYPE":0,"CLASSIFICATION_TYPE":"U","NORAD_CAT_ID":64815,"ELEMENT_SET_NO":999,"REV_AT_EPOCH":3813,"BSTAR":0.00013399726,"MEAN_MOTION_DOT":1.507e-5,"MEAN_MOTION_DDOT":0},{"OBJECT_NAME":"STARLINK-34723","OBJECT_ID":"2025-152A","EPOCH":"2026-03-20T14:12:08.152128","MEAN_MOTION":15.0567228,"ECCENTRICITY":0.0003106,"INCLINATION":97.5995,"RA_OF_ASC_NODE":296.1898,"ARG_OF_PERICENTER":83.2256,"MEAN_ANOMALY":276.9324,"EPHEMERIS_TYPE":0,"CLASSIFICATION_TYPE":"U","NORAD_CAT_ID":64842,"ELEMENT_SET_NO":999,"REV_AT_EPOCH":3705,"BSTAR":0.00035298,"MEAN_MOTION_DOT":5.039e-5,"MEAN_MOTION_DDOT":0},{"OBJECT_NAME":"STARLINK-34725","OBJECT_ID":"2025-152B","EPOCH":"2026-03-20T07:25:24.966336","MEAN_MOTION":15.05653923,"ECCENTRICITY":0.00023518,"INCLINATION":97.6019,"RA_OF_ASC_NODE":295.9537,"ARG_OF_PERICENTER":83.5609,"MEAN_ANOMALY":276.5886,"EPHEMERIS_TYPE":0,"CLASSIFICATION_TYPE":"U","NORAD_CAT_ID":64843,"ELEMENT_SET_NO":999,"REV_AT_EPOCH":3701,"BSTAR":0.00022053731,"MEAN_MOTION_DOT":3.123e-5,"MEAN_MOTION_DDOT":0},{"OBJECT_NAME":"STARLINK-34709","OBJECT_ID":"2025-152C","EPOCH":"2026-03-20T07:29:24.251136","MEAN_MOTION":15.05653095,"ECCENTRICITY":0.00017587,"INCLINATION":97.6022,"RA_OF_ASC_NODE":295.945,"ARG_OF_PERICENTER":92.0942,"MEAN_ANOMALY":268.0486,"EPHEMERIS_TYPE":0,"CLASSIFICATION_TYPE":"U","NORAD_CAT_ID":64844,"ELEMENT_SET_NO":999,"REV_AT_EPOCH":3701,"BSTAR":0.00026029021,"MEAN_MOTION_DOT":3.697e-5,"MEAN_MOTION_DDOT":0},{"OBJECT_NAME":"STARLINK-34706","OBJECT_ID":"2025-152D","EPOCH":"2026-03-20T07:45:20.481408","MEAN_MOTION":15.05650394,"ECCENTRICITY":0.00022327,"INCLINATION":97.6019,"RA_OF_ASC_NODE":295.9297,"ARG_OF_PERICENTER":85.3136,"MEAN_ANOMALY":274.8346,"EPHEMERIS_TYPE":0,"CLASSIFICATION_TYPE":"U","NORAD_CAT_ID":64845,"ELEMENT_SET_NO":999,"REV_AT_EPOCH":3701,"BSTAR":0.00062296305,"MEAN_MOTION_DOT":8.94e-5,"MEAN_MOTION_DDOT":0},{"OBJECT_NAME":"STARLINK-34736","OBJECT_ID":"2025-152E","EPOCH":"2026-03-20T13:16:20.203104","MEAN_MOTION":15.05659222,"ECCENTRICITY":0.00015343,"INCLINATION":97.602,"RA_OF_ASC_NODE":296.2305,"ARG_OF_PERICENTER":55.5706,"MEAN_ANOMALY":304.5666,"EPHEMERIS_TYPE":0,"CLASSIFICATION_TYPE":"U","NORAD_CAT_ID":64846,"ELEMENT_SET_NO":999,"REV_AT_EPOCH":3705,"BSTAR":0.0002989052,"MEAN_MOTION_DOT":4.256e-5,"MEAN_MOTION_DDOT":0}]
