STARLINK-34624
1 64805U 25150R   26079.43542187 -.00003393  00000+0 -27663-3 0  9990
2 64805  70.0007 107.4749 0004034 273.2496  86.8202 14.98336878 38122
STARLINK-34664
1 64806U 25150S   26079.78590287  .00011182  00000+0  94278-3 0  9992
2 64806  70.0014 106.2879 0002809 270.4820  89.6017 14.98357794 38181
STARLINK-34663
1 64807U 25150T   26079.48968011  .00002787  00000+0  24127-3 0  9991
2 64807  70.0012 107.2668 0003846 269.0601  91.0117 14.98327764 38137
STARLINK-34696
1 64808U 25150U   26079.49384450  .00005679  00000+0  48319-3 0  9994
2 64808  70.0012 107.2757 0003433 271.3166  88.7600 14.98341553 38133
STARLINK-34675
1 64809U 25150V   26079.48133809  .00006149  00000+0  52268-3 0  9995
2 64809  70.0007 107.2358 0003241 270.3227  89.7561 14.98331250 38139
STARLINK-34608
1 64810U 25150W   26079.79840554  .00000086  00000+0  15001-4 0  9992
2 64810  70.0013 106.3352 0003201 267.7948  92.2844 14.98338709 38182
STARLINK-34669
1 64811U 25150X   26079.79424596  .00003768  00000+0  32329-3 0  9998
2 64811  70.0004 106.3161 0004331 268.2123  91.8540 14.98339391 38183
STARLINK-34644
1 64812U 25150Y   26079.76940991  .00005560  00000+0  47332-3 0  9990
2 64812  70.0014 106.5847 0003519 271.9659  88.1097 14.98332601 38172
STARLINK-34685
1 64813U 25150Z   26079.78608986  .00004627  00000+0  39516-3 0  9996
2 64813  70.0017 106.6870 0003427 259.6989 100.3784 14.98342206 38172
STARLINK-34668
1 64814U 25150AA  26079.80276163  .00004358  00000+0  37268-3 0  9991
2 64814  70.0008 106.3411 0003200 272.3279  87.7514 14.98341242 38183
STARLINK-34667
1 64815U 25150AB  26079.48564722  .00001507  00000+0  13400-3 0  9992
2 64815  70.0003 107.2423 0003362 272.7280  87.3494 14.98344528 38135
STARLINK-34723
1 64842U 25152A   26079.59176102  .00005039  00000+0  35298-3 0  9990
2 64842  97.5995 296.1898 0003106  83.2256 276.9324 15.05672280 37053
STARLINK-34725
1 64843U 25152B   26079.30931674  .00003123  00000+0  22054-3 0  9991
2 64843  97.6019 295.9537 0002351  83.5609 276.5886 15.05653923 37013
STARLINK-34709
1 64844U 25152C   26079.31208624  .00003697  00000+0  26029-3 0  9997
2 64844  97.6022 295.9450 0001758  92.0942 268.0486 15.05653095 37019
STARLINK-34706
1 64845U 25152D   26079.32315372  .00008940  00000+0  62296-3 0  9990
2 64845  97.6019 295.9297 0002232  85.3136 274.8346 15.05650394 37012
STARLINK-34736
1 64846U 25152E   26079.55301161  .00004256  00000+0  29891-3 0  9997
2 64846  97.6020 296.2305 0001534  55.5706 304.5666 15.05659222 37054
